start=new Date('2023-05-14T00:00:00.000Z').valueOf();
sats=[{"COUNTRY_CODE":"US","BSTAR":"-0.00046180000000","OBJECT_TYPE":"PAYLOAD","OBJECT_ID":"2023-061AA","EPOCH":"2023-05-13T22:00:00.999936","MEAN_MOTION":"15.71385269","DECAY_DATE":null,"CLASSIFICATION_TYPE":"U","TLE_LINE2":"2 56398  43.0012  53.5515 0001486 263.8022 103.3920 15.71385269  1308","LAUNCH_DATE":"2023-05-04","ELEMENT_SET_NO":"999","REV_AT_EPOCH":"130","SEMIMAJOR_AXIS":"6733.074","MEAN_MOTION_DOT":"-0.00060645","RCS_SIZE":null,"FILE":"3907148","ECCENTRICITY":"0.00014860","CENTER_NAME":"EARTH","PERIOD":"91.639","SITE":"AFETR","MEAN_MOTION_DDOT":"0.0000000000000","RA_OF_ASC_NODE":"53.5515","MEAN_ANOMALY":"103.3920","REF_FRAME":"TEME","TIME_SYSTEM":"UTC","NORAD_CAT_ID":"56398","OBJECT_NAME":"STARLINK-6288","TLE_LINE1":"1 56398U 23061AA  23133.91667824 -.00060645  00000-0 -46180-3 0  9993","PERIAPSIS":"353.938","EPHEMERIS_TYPE":"0","ARG_OF_PERICENTER":"263.8022","MEAN_ELEMENT_THEORY":"SGP4","INCLINATION":"43.0012","GP_ID":"231783355","APOAPSIS":"355.940"},{"LAUNCH_DATE":"2023-05-04","REV_AT_EPOCH":"130","ELEMENT_SET_NO":"999","SEMIMAJOR_AXIS":"6733.090","MEAN_MOTION_DOT":"-0.00050845","TLE_LINE2":"2 56399  43.0012  53.5543 0001572 244.6131 121.3820 15.71379704  1300","CLASSIFICATION_TYPE":"U","EPOCH":"2023-05-13T22:00:00.999936","MEAN_MOTION":"15.71379704","DECAY_DATE":null,"COUNTRY_CODE":"US","OBJECT_TYPE":"PAYLOAD","BSTAR":"-0.00038625000000","OBJECT_ID":"2023-061AB","MEAN_ELEMENT_THEORY":"SGP4","APOAPSIS":"356.013","GP_ID":"231783315","INCLINATION":"43.0012","PERIAPSIS":"353.896","EPHEMERIS_TYPE":"0","ARG_OF_PERICENTER":"244.6131","TIME_SYSTEM":"UTC","NORAD_CAT_ID":"56399","OBJECT_NAME":"STARLINK-6277","TLE_LINE1":"1 56399U 23061AB  23133.91667824 -.00050845  00000-0 -38625-3 0  9990","ECCENTRICITY":"0.00015720","FILE":"3907148","RCS_SIZE":null,"CENTER_NAME":"EARTH","PERIOD":"91.639","SITE":"AFETR","RA_OF_ASC_NODE":"53.5543","MEAN_MOTION_DDOT":"0.0000000000000","MEAN_ANOMALY":"121.3820","REF_FRAME":"TEME"},{"PERIAPSIS":"353.975","EPHEMERIS_TYPE":"0","ARG_OF_PERICENTER":"273.5064","MEAN_ELEMENT_THEORY":"SGP4","APOAPSIS":"355.819","INCLINATION":"43.0009","GP_ID":"231783499","CENTER_NAME":"EARTH","PERIOD":"91.638","ECCENTRICITY":"0.00013700","FILE":"3907148","RCS_SIZE":null,"REF_FRAME":"TEME","MEAN_ANOMALY":"94.8844","RA_OF_ASC_NODE":"53.5486","SITE":"AFETR","MEAN_MOTION_DDOT":"0.0000000000000","NORAD_CAT_ID":"56400","TIME_SYSTEM":"UTC","TLE_LINE1":"1 56400U 23061AC  23133.91667824 -.00095322  00000-0 -73042-3 0  9994","OBJECT_NAME":"STARLINK-6267","TLE_LINE2":"2 56400  43.0009  53.5486 0001370 273.5064  94.8844 15.71399985  1300","CLASSIFICATION_TYPE":"U","REV_AT_EPOCH":"130","LAUNCH_DATE":"2023-05-04","ELEMENT_SET_NO":"999","MEAN_MOTION_DOT":"-0.00095322","SEMIMAJOR_AXIS":"6733.032","COUNTRY_CODE":"US","OBJECT_ID":"2023-061AC","BSTAR":"-0.00073042000000","OBJECT_TYPE":"PAYLOAD","MEAN_MOTION":"15.71399985","EPOCH":"2023-05-13T22:00:00.999936","DECAY_DATE":null},{"ARG_OF_PERICENTER":"266.6754","EPHEMERIS_TYPE":"0","PERIAPSIS":"354.178","GP_ID":"231783469","INCLINATION":"43.0009","APOAPSIS":"355.891","MEAN_ELEMENT_THEORY":"SGP4","MEAN_ANOMALY":"102.9163","REF_FRAME":"TEME","RA_OF_ASC_NODE":"53.5453","SITE":"AFETR","MEAN_MOTION_DDOT":"0.0000000000000","CENTER_NAME":"EARTH","PERIOD":"91.641","RCS_SIZE":null,"FILE":"3907148","ECCENTRICITY":"0.00012720","TLE_LINE1":"1 56401U 23061AD  23133.91667824  .00006537  00000-0  53259-4 0  9992","OBJECT_NAME":"STARLINK-6256","NORAD_CAT_ID":"56401","TIME_SYSTEM":"UTC","CLASSIFICATION_TYPE":"U","TLE_LINE2":"2 56401  43.0009  53.5453 0001272 266.6754 102.9163 15.71351943  1302","MEAN_MOTION_DOT":"0.00006537","SEMIMAJOR_AXIS":"6733.169","REV_AT_EPOCH":"130","LAUNCH_DATE":"2023-05-04","ELEMENT_SET_NO":"999","OBJECT_ID":"2023-061AD","OBJECT_TYPE":"PAYLOAD","BSTAR":"0.00005325900000","COUNTRY_CODE":"US","DECAY_DATE":null,"MEAN_MOTION":"15.71351943","EPOCH":"2023-05-13T22:00:00.999936"},{"OBJECT_ID":"2023-061AE","BSTAR":"-0.00055922000000","OBJECT_TYPE":"PAYLOAD","COUNTRY_CODE":"US","DECAY_DATE":null,"MEAN_MOTION":"15.71387707","EPOCH":"2023-05-13T22:00:00.999936","TLE_LINE2":"2 56402  43.0011  53.5441 0001412 269.9686 100.2127 15.71387707  1307","CLASSIFICATION_TYPE":"U","MEAN_MOTION_DOT":"-0.00073240","SEMIMAJOR_AXIS":"6733.067","REV_AT_EPOCH":"130","LAUNCH_DATE":"2023-05-04","ELEMENT_SET_NO":"999","REF_FRAME":"TEME","MEAN_ANOMALY":"100.2127","MEAN_MOTION_DDOT":"0.0000000000000","SITE":"AFETR","RA_OF_ASC_NODE":"53.5441","CENTER_NAME":"EARTH","PERIOD":"91.639","ECCENTRICITY":"0.00014120","RCS_SIZE":null,"FILE":"3907148","TLE_LINE1":"1 56402U 23061AE  23133.91667824 -.00073240  00000-0 -55922-3 0  9998","OBJECT_NAME":"STARLINK-6269","NORAD_CAT_ID":"56402","TIME_SYSTEM":"UTC","ARG_OF_PERICENTER":"269.9686","EPHEMERIS_TYPE":"0","PERIAPSIS":"353.981","APOAPSIS":"355.883","GP_ID":"231783481","INCLINATION":"43.0011","MEAN_ELEMENT_THEORY":"SGP4"},{"MEAN_MOTION":"15.71405560","EPOCH":"2023-05-13T22:00:00.999936","DECAY_DATE":null,"COUNTRY_CODE":"US","OBJECT_ID":"2023-061AF","OBJECT_TYPE":"PAYLOAD","BSTAR":"-0.00066513000000","LAUNCH_DATE":"2023-05-04","REV_AT_EPOCH":"130","ELEMENT_SET_NO":"999","MEAN_MOTION_DOT":"-0.00086952","SEMIMAJOR_AXIS":"6733.016","CLASSIFICATION_TYPE":"U","TLE_LINE2":"2 56403  43.0014  53.5499 0001633 271.6795  96.1016 15.71405560  1308","NORAD_CAT_ID":"56403","TIME_SYSTEM":"UTC","TLE_LINE1":"1 56403U 23061AF  23133.91667824 -.00086952  00000-0 -66513-3 0  9991","OBJECT_NAME":"STARLINK-6284","CENTER_NAME":"EARTH","PERIOD":"91.638","RCS_SIZE":null,"FILE":"3907148","ECCENTRICITY":"0.00016330","MEAN_ANOMALY":"96.1016","REF_FRAME":"TEME","SITE":"AFETR","MEAN_MOTION_DDOT":"0.0000000000000","RA_OF_ASC_NODE":"53.5499","MEAN_ELEMENT_THEORY":"SGP4","GP_ID":"231783442","INCLINATION":"43.0014","APOAPSIS":"355.981","PERIAPSIS":"353.782","EPHEMERIS_TYPE":"0","ARG_OF_PERICENTER":"271.6795"},{"APOAPSIS":"355.856","GP_ID":"231783375","INCLINATION":"43.0013","MEAN_ELEMENT_THEORY":"SGP4","ARG_OF_PERICENTER":"273.2329","PERIAPSIS":"354.011","EPHEMERIS_TYPE":"0","TLE_LINE1":"1 56404U 23061AG  23133.91667824 -.00079326  00000-0 -60644-3 0  9998","OBJECT_NAME":"STARLINK-6287","NORAD_CAT_ID":"56404","TIME_SYSTEM":"UTC","MEAN_ANOMALY":"98.1445","REF_FRAME":"TEME","MEAN_MOTION_DDOT":"0.0000000000000","SITE":"AFETR","RA_OF_ASC_NODE":"53.5412","CENTER_NAME":"EARTH","PERIOD":"91.639","ECCENTRICITY":"0.00013700","FILE":"3907148","RCS_SIZE":null,"MEAN_MOTION_DOT":"-0.00079326","SEMIMAJOR_AXIS":"6733.069","ELEMENT_SET_NO":"999","LAUNCH_DATE":"2023-05-04","REV_AT_EPOCH":"130","TLE_LINE2":"2 56404  43.0013  53.5412 0001370 273.2329  98.1445 15.71387114  1304","CLASSIFICATION_TYPE":"U","DECAY_DATE":null,"MEAN_MOTION":"15.71387114","EPOCH":"2023-05-13T22:00:00.999936","OBJECT_ID":"2023-061AG","BSTAR":"-0.00060644000000","OBJECT_TYPE":"PAYLOAD","COUNTRY_CODE":"US"},{"EPHEMERIS_TYPE":"0","PERIAPSIS":"353.951","ARG_OF_PERICENTER":"256.6682","MEAN_ELEMENT_THEORY":"SGP4","GP_ID":"231783343","INCLINATION":"43.0011","APOAPSIS":"355.839","CENTER_NAME":"EARTH","PERIOD":"91.638","FILE":"3907148","RCS_SIZE":null,"ECCENTRICITY":"0.00014020","REF_FRAME":"TEME","MEAN_ANOMALY":"112.3058","MEAN_MOTION_DDOT":"0.0000000000000","SITE":"AFETR","RA_OF_ASC_NODE":"53.5470","NORAD_CAT_ID":"56405","TIME_SYSTEM":"UTC","TLE_LINE1":"1 56405U 23061AH  23133.91667824 -.00078420  00000-0 -59906-3 0  9992","OBJECT_NAME":"STARLINK-6285","CLASSIFICATION_TYPE":"U","TLE_LINE2":"2 56405  43.0011  53.5470 0001402 256.6682 112.3058 15.71400560  1300","LAUNCH_DATE":"2023-05-04","ELEMENT_SET_NO":"999","REV_AT_EPOCH":"130","MEAN_MOTION_DOT":"-0.00078420","SEMIMAJOR_AXIS":"6733.030","COUNTRY_CODE":"US","OBJECT_ID":"2023-061AH","BSTAR":"-0.00059906000000","OBJECT_TYPE":"PAYLOAD","MEAN_MOTION":"15.71400560","EPOCH":"2023-05-13T22:00:00.999936","DECAY_DATE":null},{"COUNTRY_CODE":"US","BSTAR":"-0.00064722000000","OBJECT_TYPE":"PAYLOAD","OBJECT_ID":"2023-061AJ","EPOCH":"2023-05-13T22:00:00.999936","MEAN_MOTION":"15.71378548","DECAY_DATE":null,"CLASSIFICATION_TYPE":"U","TLE_LINE2":"2 56406  43.0011  53.5366 0001440 281.2315  91.9492 15.71378548  1308","REV_AT_EPOCH":"130","LAUNCH_DATE":"2023-05-04","ELEMENT_SET_NO":"999","SEMIMAJOR_AXIS":"6733.093","MEAN_MOTION_DOT":"-0.00084548","FILE":"3907148","RCS_SIZE":null,"ECCENTRICITY":"0.00014400","CENTER_NAME":"EARTH","PERIOD":"91.639","SITE":"AFETR","RA_OF_ASC_NODE":"53.5366","MEAN_MOTION_DDOT":"0.0000000000000","MEAN_ANOMALY":"91.9492","REF_FRAME":"TEME","TIME_SYSTEM":"UTC","NORAD_CAT_ID":"56406","OBJECT_NAME":"STARLINK-6283","TLE_LINE1":"1 56406U 23061AJ  23133.91667824 -.00084548  00000-0 -64722-3 0  9993","PERIAPSIS":"353.989","EPHEMERIS_TYPE":"0","ARG_OF_PERICENTER":"281.2315","MEAN_ELEMENT_THEORY":"SGP4","INCLINATION":"43.0011","GP_ID":"231783356","APOAPSIS":"355.928"},{"APOAPSIS":"355.961","GP_ID":"231783316","INCLINATION":"43.0010","MEAN_ELEMENT_THEORY":"SGP4","ARG_OF_PERICENTER":"266.8249","PERIAPSIS":"353.990","EPHEMERIS_TYPE":"0","OBJECT_NAME":"STARLINK-6282","TLE_LINE1":"1 56407U 23061AK  23133.91667824 -.00062817  00000-0 -47885-3 0  9990","TIME_SYSTEM":"UTC","NORAD_CAT_ID":"56407","SITE":"AFETR","RA_OF_ASC_NODE":"53.5424","MEAN_MOTION_DDOT":"0.0000000000000","MEAN_ANOMALY":"103.9685","REF_FRAME":"TEME","ECCENTRICITY":"0.00014640","FILE":"3907148","RCS_SIZE":null,"PERIOD":"91.640","CENTER_NAME":"EARTH","SEMIMAJOR_AXIS":"6733.110","MEAN_MOTION_DOT":"-0.00062817","ELEMENT_SET_NO":"999","LAUNCH_DATE":"2023-05-04","REV_AT_EPOCH":"130","TLE_LINE2":"2 56407  43.0010  53.5424 0001464 266.8249 103.9685 15.71372586  1308","CLASSIFICATION_TYPE":"U","DECAY_DATE":null,"EPOCH":"2023-05-13T22:00:00.999936","MEAN_MOTION":"15.71372586","BSTAR":"-0.00047885000000","OBJECT_TYPE":"PAYLOAD","OBJECT_ID":"2023-061AK","COUNTRY_CODE":"US"}];
